*******************************************************************************
Ephemeris / WWW_USER Mon Mar 24 10:52:00 2025 Pasadena, USA      / Horizons    
*******************************************************************************
Target body name: (2018 PN20)                     {source: JPL#3}
Center body name: Earth (399)                     {source: DE441}
Center-site name: Mauna Kea
*******************************************************************************
Start time      : A.D. 2018-Aug-09 05:04:00.0000 UT      
Stop  time      : A.D. 2018-Aug-09 15:50:00.0000 UT      
Step-size       : 1 minutes
*******************************************************************************
Target pole/equ : undefined
Target radii    : undefined                                                    
Center geodetic : 204.5278, 19.8260847, 4.21024   {E-lon(deg),Lat(deg),Alt(km)}
Center cylindric: 204.5278, 6006.35451, 2151.0229 {E-lon(deg),Dxy(km),Dz(km)}
Center pole/equ : ITRF93                          {East-longitude positive}
Center radii    : 6378.137, 6378.137, 6356.752 km {Equator_a, b, pole_c}       
Target primary  : Sun
Vis. interferer : MOON (R_eq= 1737.400) km        {source: DE441}
Rel. light bend : Sun                             {source: DE441}
Rel. lght bnd GM: 1.3271E+11 km^3/s^2                                          
Small-body perts: Yes                             {source: SB441-N16}
Atmos refraction: NO (AIRLESS)
RA format       : HMS
Time format     : CAL 
Calendar mode   : Mixed Julian/Gregorian
RTS-only print  : NO       
EOP file        : eop.250321.p250617                                           
EOP coverage    : DATA-BASED 1962-JAN-20 TO 2025-MAR-21. PREDICTS-> 2025-JUN-16
Units conversion: 1 au= 149597870.700 km, c= 299792.458 km/s, 1 day= 86400.0 s 
Table cut-offs 1: Elevation (-90.0deg=NO ),Airmass (>38.000=NO), Daylight (YES)
Table cut-offs 2: Solar elongation (  0.0,180.0=NO ),Local Hour Angle( 0.0=NO )
Table cut-offs 3: RA/DEC angular rate (     0.0=NO )                           
*******************************************************************************
Initial IAU76/J2000 heliocentric ecliptic osculating elements (au, days, deg.):
  EPOCH=  2458343.5 ! 2018-Aug-13.00 (TDB)         Residual RMS= .1225         
   EC= .3775096637251725   QR= 1.051585063958075   TP= 2458346.3972912203      
   OM= 142.6884316149991   W=  180.4368328240348   IN= 18.91630320954361       
  Equivalent ICRF heliocentric cartesian coordinates (au, au/d):
   X= 8.077039416640637E-01  Y=-6.245728834467501E-01  Z=-2.534674905132982E-01
  VX= 1.177737749455786E-02 VY= 1.576958466977457E-02 VZ=-1.142216194306418E-04
Asteroid physical parameters (km, seconds, rotational period in hours):        
   GM= n.a.                RAD= n.a.               ROTPER= n.a.                
   H= 25.1                 G= .150                 B-V= n.a.                   
                           ALBEDO= n.a.            STYP= n.a.                  
*******************************************************************************
 Date__(UT)__HR:MN     R.A._________(ICRF)_________DEC
******************************************************
$$SOE
 2018-Aug-09 15:19 Nm  20 24 33.338173 +25 56 21.36238
 2018-Aug-09 15:20 Nm  20 24 33.920873 +25 56 11.35114
 2018-Aug-09 15:21 Nm  20 24 34.503828 +25 56 01.33851
 2018-Aug-09 15:22 Nm  20 24 35.087039 +25 55 51.32449
 2018-Aug-09 15:23 Nm  20 24 35.670506 +25 55 41.30910
 2018-Aug-09 15:24 Nm  20 24 36.254229 +25 55 31.29232
 2018-Aug-09 15:25 Nm  20 24 36.838207 +25 55 21.27418
 2018-Aug-09 15:26 Nm  20 24 37.422441 +25 55 11.25468
 2018-Aug-09 15:27 Nm  20 24 38.006932 +25 55 01.23381
 2018-Aug-09 15:28 Nm  20 24 38.591678 +25 54 51.21159
 2018-Aug-09 15:29 Nm  20 24 39.176681 +25 54 41.18803
 2018-Aug-09 15:30 Nm  20 24 39.761939 +25 54 31.16312
 2018-Aug-09 15:31 Nm  20 24 40.347454 +25 54 21.13687
 2018-Aug-09 15:32 Nm  20 24 40.933225 +25 54 11.10929
 2018-Aug-09 15:33 Nm  20 24 41.519253 +25 54 01.08039
 2018-Aug-09 15:34 Nm  20 24 42.105536 +25 53 51.05016
 2018-Aug-09 15:35 Nm  20 24 42.692076 +25 53 41.01862
 2018-Aug-09 15:36 Nm  20 24 43.278873 +25 53 30.98577
 2018-Aug-09 15:37 Nm  20 24 43.865926 +25 53 20.95161
 2018-Aug-09 15:38 Cm  20 24 44.453235 +25 53 10.91615
 2018-Aug-09 15:39 Cm  20 24 45.040800 +25 53 00.87939
 2018-Aug-09 15:40 Cm  20 24 45.628623 +25 52 50.84135
 2018-Aug-09 15:41 Cm  20 24 46.216701 +25 52 40.80202
 2018-Aug-09 15:42 Cm  20 24 46.805036 +25 52 30.76141
 2018-Aug-09 15:43 Cm  20 24 47.393627 +25 52 20.71953
 2018-Aug-09 15:44 Cm  20 24 47.982475 +25 52 10.67638
 2018-Aug-09 15:45 Cm  20 24 48.571579 +25 52 00.63197
 2018-Aug-09 15:46 Cm  20 24 49.160940 +25 51 50.58630
 2018-Aug-09 15:47 Cm  20 24 49.750557 +25 51 40.53938
 2018-Aug-09 15:48 Cm  20 24 50.340430 +25 51 30.49121
 2018-Aug-09 15:49 Cm  20 24 50.930560 +25 51 20.44179
 2018-Aug-09 15:50 Cm  20 24 51.520946 +25 51 10.39115
